[{"OBJECT_NAME":"STARLINK-5535","OBJECT_ID":"2023-058AR","EPOCH":"2026-03-09T22:34:46.803936","MEAN_MOTION":15.05644673,"ECCENTRICITY":0.00019745,"INCLINATION":97.6052,"RA_OF_ASC_NODE":71.4563,"ARG_OF_PERICENTER":92.0293,"MEAN_ANOMALY":268.116,"EPHEMERIS_TYPE":0,"CLASSIFICATION_TYPE":"U","NORAD_CAT_ID":56356,"ELEMENT_SET_NO":999,"REV_AT_EPOCH":15823,"BSTAR":5.588258e-6,"MEAN_MOTION_DOT":2.0e-7,"MEAN_MOTION_DDOT":0},{"OBJECT_NAME":"PEGASUS DEB","OBJECT_ID":"1994-029LN","EPOCH":"2026-03-09T13:32:28.639104","MEAN_MOTION":14.7969053,"ECCENTRICITY":0.014325,"INCLINATION":81.5077,"RA_OF_ASC_NODE":265.5669,"ARG_OF_PERICENTER":165.8227,"MEAN_ANOMALY":194.7072,"EPHEMERIS_TYPE":0,"CLASSIFICATION_TYPE":"U","NORAD_CAT_ID":24239,"ELEMENT_SET_NO":999,"REV_AT_EPOCH":56152,"BSTAR":0.0015079,"MEAN_MOTION_DOT":0.00013522,"MEAN_MOTION_DDOT":0}]
